[Satellite]
VERSION=1.1
NAME=CICERO 6
NICKNAME=CICERO 6
TLE1=1 42793U 17036AE  18020.93685000  .00000825  00000-0  39624-4 0  9997
TLE2=2 42793  97.4218  83.0987 0009375 228.8305 131.2123 15.21596605 32205
